{
  "type": "FeatureCollection",
  "features": [
    {
      "type": "Feature",
      "properties": {
        "norad_id": 42988,
        "name": "SKYSAT-C10",
        "group": "resource",
        "lat": 63.14819174819731,
        "lon": 102.53239620377902,
        "alt_km": 460.71616062120484,
        "timestamp": "2025-12-12T14:39:17.629313+00:00",
        "meta_object_name": "SKYSAT-C10",
        "meta_object_id": "2017-068B",
        "meta_epoch": "2025-12-12T06:32:18.310560",
        "meta_mean_motion": 15.3204752,
        "meta_eccentricity": 0.00053447,
        "meta_inclination": 97.4255,
        "meta_ra_of_asc_node": 117.1218,
        "meta_arg_of_pericenter": 104.7336,
        "meta_mean_anomaly": 255.4499,
        "meta_ephemeris_type": 0,
        "meta_classification_type": "U",
        "meta_norad_cat_id": 42988,
        "meta_element_set_no": 999,
        "meta_rev_at_epoch": 45372,
        "meta_bstar": 0.00053154411,
        "meta_mean_motion_dot": 0.00016392,
        "meta_mean_motion_ddot": 0,
        "tle_line1": "1 42988U 17068B   25346.27243415  .00016392  00000+0  53154-3 0  9992",
        "tle_line2": "2 42988  97.4255 117.1218 0005344 104.7336 255.4499 15.32047520453724"
      },
      "geometry": {
        "type": "Point",
        "coordinates": [
          102.53239620377902,
          63.14819174819731
        ]
      }
    },
    {
      "type": "Feature",
      "properties": {
        "norad_id": 42989,
        "name": "SKYSAT-C9",
        "group": "resource",
        "lat": -82.57550865754116,
        "lon": -152.34504175828943,
        "alt_km": 472.4581624185257,
        "timestamp": "2025-12-12T14:39:17.629322+00:00",
        "meta_object_name": "SKYSAT-C9",
        "meta_object_id": "2017-068C",
        "meta_epoch": "2025-12-12T07:13:47.624160",
        "meta_mean_motion": 15.36032982,
        "meta_eccentricity": 0.00106381,
        "meta_inclination": 97.4186,
        "meta_ra_of_asc_node": 116.5513,
        "meta_arg_of_pericenter": 88.8897,
        "meta_mean_anomaly": 271.3566,
        "meta_ephemeris_type": 0,
        "meta_classification_type": "U",
        "meta_norad_cat_id": 42989,
        "meta_element_set_no": 999,
        "meta_rev_at_epoch": 45401,
        "meta_bstar": 0.00055011012,
        "meta_mean_motion_dot": 0.00019281,
        "meta_mean_motion_ddot": 0,
        "tle_line1": "1 42989U 17068C   25346.30124565  .00019281  00000+0  55011-3 0  9995",
        "tle_line2": "2 42989  97.4186 116.5513 0010638  88.8897 271.3566 15.36032982454010"
      },
      "geometry": {
        "type": "Point",
        "coordinates": [
          -152.34504175828943,
          -82.57550865754116
        ]
      }
    },
    {
      "type": "Feature",
      "properties": {
        "norad_id": 42990,
        "name": "SKYSAT-C8",
        "group": "resource",
        "lat": -61.32650897583963,
        "lon": -77.19137719933705,
        "alt_km": 474.65445977718446,
        "timestamp": "2025-12-12T14:39:17.629331+00:00",
        "meta_object_name": "SKYSAT-C8",
        "meta_object_id": "2017-068D",
        "meta_epoch": "2025-12-12T07:20:05.443584",
        "meta_mean_motion": 15.32905286,
        "meta_eccentricity": 0.00016265,
        "meta_inclination": 97.4275,
        "meta_ra_of_asc_node": 116.3032,
        "meta_arg_of_pericenter": 350.7763,
        "meta_mean_anomaly": 9.3449,
        "meta_ephemeris_type": 0,
        "meta_classification_type": "U",
        "meta_norad_cat_id": 42990,
        "meta_element_set_no": 999,
        "meta_rev_at_epoch": 45364,
        "meta_bstar": 0.00052846279,
        "meta_mean_motion_dot": 0.00016735,
        "meta_mean_motion_ddot": 0,
        "tle_line1": "1 42990U 17068D   25346.30561856  .00016735  00000+0  52846-3 0  9999",
        "tle_line2": "2 42990  97.4275 116.3032 0001626 350.7763   9.3449 15.32905286453644"
      },
      "geometry": {
        "type": "Point",
        "coordinates": [
          -77.19137719933705,
          -61.32650897583963
        ]
      }
    },
    {
      "type": "Feature",
      "properties": {
        "norad_id": 42991,
        "name": "SKYSAT-C7",
        "group": "resource",
        "lat": 79.13145196180794,
        "lon": -19.539856637357225,
        "alt_km": 457.5823803123358,
        "timestamp": "2025-12-12T14:39:17.629340+00:00",
        "meta_object_name": "SKYSAT-C7",
        "meta_object_id": "2017-068E",
        "meta_epoch": "2025-12-11T20:59:22.535232",
        "meta_mean_motion": 15.32294521,
        "meta_eccentricity": 0.0007687,
        "meta_inclination": 97.4285,
        "meta_ra_of_asc_node": 116.9127,
        "meta_arg_of_pericenter": 59.5995,
        "meta_mean_anomaly": 300.6005,
        "meta_ephemeris_type": 0,
        "meta_classification_type": "U",
        "meta_norad_cat_id": 42991,
        "meta_element_set_no": 999,
        "meta_rev_at_epoch": 45364,
        "meta_bstar": 0.00051899,
        "meta_mean_motion_dot": 0.00016134,
        "meta_mean_motion_ddot": 0,
        "tle_line1": "1 42991U 17068E   25345.87456638  .00016134  00000+0  51899-3 0  9992",
        "tle_line2": "2 42991  97.4285 116.9127 0007687  59.5995 300.6005 15.32294521453649"
      },
      "geometry": {
        "type": "Point",
        "coordinates": [
          -19.539856637357225,
          79.13145196180794
        ]
      }
    },
    {
      "type": "Feature",
      "properties": {
        "norad_id": 42992,
        "name": "SKYSAT-C6",
        "group": "resource",
        "lat": -35.00726804978061,
        "lon": -67.15573107619058,
        "alt_km": 480.1370985914309,
        "timestamp": "2025-12-12T14:39:17.629349+00:00",
        "meta_object_name": "SKYSAT-C6",
        "meta_object_id": "2017-068F",
        "meta_epoch": "2025-12-12T07:26:44.975328",
        "meta_mean_motion": 15.31474953,
        "meta_eccentricity": 0.00051986,
        "meta_inclination": 97.4317,
        "meta_ra_of_asc_node": 117.7887,
        "meta_arg_of_pericenter": 83.6363,
        "meta_mean_anomaly": 276.547,
        "meta_ephemeris_type": 0,
        "meta_classification_type": "U",
        "meta_norad_cat_id": 42992,
        "meta_element_set_no": 999,
        "meta_rev_at_epoch": 45369,
        "meta_bstar": 0.00053031604,
        "meta_mean_motion_dot": 0.00016064,
        "meta_mean_motion_ddot": 0,
        "tle_line1": "1 42992U 17068F   25346.31024277  .00016064  00000+0  53032-3 0  9996",
        "tle_line2": "2 42992  97.4317 117.7887 0005198  83.6363 276.5470 15.31474953453690"
      },
      "geometry": {
        "type": "Point",
        "coordinates": [
          -67.15573107619058,
          -35.00726804978061
        ]
      }
    },
    {
      "type": "Feature",
      "properties": {
        "norad_id": 43111,
        "name": "CARTOSAT-2F",
        "group": "resource",
        "lat": -32.50987348555129,
        "lon": 49.02165915716251,
        "alt_km": 514.9218774287692,
        "timestamp": "2025-12-12T14:39:17.629358+00:00",
        "meta_object_name": "CARTOSAT-2F",
        "meta_object_id": "2018-004A",
        "meta_epoch": "2025-12-12T08:28:34.493664",
        "meta_mean_motion": 15.19271482,
        "meta_eccentricity": 0.00010362,
        "meta_inclination": 97.4318,
        "meta_ra_of_asc_node": 43.9964,
        "meta_arg_of_pericenter": 138.9974,
        "meta_mean_anomaly": 221.1339,
        "meta_ephemeris_type": 0,
        "meta_classification_type": "U",
        "meta_norad_cat_id": 43111,
        "meta_element_set_no": 999,
        "meta_rev_at_epoch": 43896,
        "meta_bstar": 0.00037969757,
        "meta_mean_motion_dot": 7.943e-05,
        "meta_mean_motion_ddot": 0,
        "tle_line1": "1 43111U 18004A   25346.35317701  .00007943  00000+0  37970-3 0  9991",
        "tle_line2": "2 43111  97.4318  43.9964 0001036 138.9974 221.1339 15.19271482438961"
      },
      "geometry": {
        "type": "Point",
        "coordinates": [
          49.02165915716251,
          -32.50987348555129
        ]
      }
    },
    {
      "type": "Feature",
      "properties": {
        "norad_id": 43259,
        "name": "GAOFEN-1 02",
        "group": "resource",
        "lat": 65.11316079861678,
        "lon": -117.76750046745777,
        "alt_km": 634.617888457914,
        "timestamp": "2025-12-12T14:39:17.629372+00:00",
        "meta_object_name": "GAOFEN-1 02",
        "meta_object_id": "2018-031A",
        "meta_epoch": "2025-12-12T07:38:09.564864",
        "meta_mean_motion": 14.76413889,
        "meta_eccentricity": 0.00017311,
        "meta_inclination": 98.0803,
        "meta_ra_of_asc_node": 44.1073,
        "meta_arg_of_pericenter": 219.1812,
        "meta_mean_anomaly": 140.9272,
        "meta_ephemeris_type": 0,
        "meta_classification_type": "U",
        "meta_norad_cat_id": 43259,
        "meta_element_set_no": 999,
        "meta_rev_at_epoch": 41512,
        "meta_bstar": 0.00024991178,
        "meta_mean_motion_dot": 1.685e-05,
        "meta_mean_motion_ddot": 0,
        "tle_line1": "1 43259U 18031A   25346.31816626  .00001685  00000+0  24991-3 0  9996",
        "tle_line2": "2 43259  98.0803  44.1073 0001731 219.1812 140.9272 14.76413889415127"
      },
      "geometry": {
        "type": "Point",
        "coordinates": [
          -117.76750046745777,
          65.11316079861678
        ]
      }
    }
  ]
}